GLOBALSTAR M057         
1 25943U 99058A   25345.93368720 -.00000048  00000+0  40795-3 0  9991
2 25943  51.9963 203.7578 0003210  35.0721 325.0339 12.24831858188716
GLOBALSTAR M059         
1 25944U 99058B   25345.69962263 -.00000061  00000+0  31038-3 0  9992
2 25944  52.0026  86.9384 0000596 116.8174  31.8782 11.99988206595356
GLOBALSTAR M056         
1 25945U 99058C   25345.54162303 -.00000137  00000+0 -57559-3 0  9995
2 25945  51.9972  84.7797 0001509 154.3257 218.7814 12.04781237184003
GLOBALSTAR M031         
1 25946U 99058D   25346.03282247 -.00000037  00000+0  54491-3 0  9991
2 25946  51.9980 325.1155 0001106 173.2265 230.4535 12.16044630186189
GLOBALSTAR M039         
1 25961U 99062A   25345.68619997 -.00000053  00000+0  28191-3 0  9995
2 25961  51.9848  88.0810 0002609  39.3612 320.7444 12.62339060202635
GLOBALSTAR M034         
1 25962U 99062B   25346.00871936 -.00000053  00000+0  44546-3 0  9998
2 25962  51.9881 269.1527 0014985  19.3742  63.2875 11.79453467159376
GLOBALSTAR M029         
1 25963U 99062C   25346.02881152 -.00000065  00000+0  26390-3 0  9992
2 25963  51.9831 333.9331 0002554 102.0228 296.7927 11.99903891190473
GLOBALSTAR M061         
1 25964U 99062D   25345.75781338 -.00000090  00000+0 -16281-3 0  9994
2 25964  51.9792  96.1942 0004997 298.3876 229.6227 11.76778173142087
